{
  "norad_id": 65835,
  "name": "STARLINK-35349",
  "history": [
    {
      "epoch": "2026-04-13T05:04:10.033536Z",
      "apogee_km": 475.68085925802734,
      "perigee_km": 474.72413306436374,
      "latitude_deg": -2.2829791674363043e-05,
      "longitude_deg": 10.913312374693234,
      "height_km": 475.90097801557914,
      "semi_major_axis_km": 6853.339496161196,
      "eccentricity": 6.98e-05,
      "inclination_deg": 53.1575,
      "raan_deg": 288.3604,
      "arg_perigee_deg": 65.2624,
      "mean_anomaly_deg": 294.8449,
      "mean_motion_rev_day": 15.30204211
    },
    {
      "epoch": "2026-04-14T18:41:26.259360Z",
      "apogee_km": 476.1718335661144,
      "perigee_km": 474.3296429420716,
      "latitude_deg": 3.200353136636644e-05,
      "longitude_deg": 157.76690056486123,
      "height_km": 475.6382159498511,
      "semi_major_axis_km": 6853.387738254092,
      "eccentricity": 0.0001344,
      "inclination_deg": 53.1547,
      "raan_deg": 281.0766,
      "arg_perigee_deg": 303.8381,
      "mean_anomaly_deg": 56.2492,
      "mean_motion_rev_day": 15.30188054
    },
    {
      "epoch": "2026-04-15T18:12:14.747328Z",
      "apogee_km": 475.9522794065215,
      "perigee_km": 474.49251385503885,
      "latitude_deg": 1.1083398563154408e-05,
      "longitude_deg": 159.55078977297225,
      "height_km": 475.9939601419621,
      "semi_major_axis_km": 6853.35939663078,
      "eccentricity": 0.0001065,
      "inclination_deg": 53.1592,
      "raan_deg": 276.5282,
      "arg_perigee_deg": 80.0014,
      "mean_anomaly_deg": 280.1107,
      "mean_motion_rev_day": 15.30197546
    },
    {
      "epoch": "2026-04-16T17:43:02.661600Z",
      "apogee_km": 476.0062274169277,
      "perigee_km": 474.3669124190019,
      "latitude_deg": -2.3935146465850062e-05,
      "longitude_deg": 161.33486545220217,
      "height_km": 475.9663665041855,
      "semi_major_axis_km": 6853.323569917964,
      "eccentricity": 0.0001196,
      "inclination_deg": 53.159,
      "raan_deg": 271.9776,
      "arg_perigee_deg": 81.7017,
      "mean_anomaly_deg": 278.4119,
      "mean_motion_rev_day": 15.30209545
    },
    {
      "epoch": "2026-04-17T20:21:57.085632Z",
      "apogee_km": 475.8497111371853,
      "perigee_km": 474.53620191771734,
      "latitude_deg": -3.049654729846852e-05,
      "longitude_deg": 115.35668224312589,
      "height_km": 475.93585710514884,
      "semi_major_axis_km": 6853.329956527451,
      "eccentricity": 9.583e-05,
      "inclination_deg": 53.1612,
      "raan_deg": 266.8206,
      "arg_perigee_deg": 76.2797,
      "mean_anomaly_deg": 283.831,
      "mean_motion_rev_day": 15.30207406
    },
    {
      "epoch": "2026-04-18T16:44:38.294016Z",
      "apogee_km": 475.753319089833,
      "perigee_km": 474.5581048408658,
      "latitude_deg": -1.5918033623638723e-05,
      "longitude_deg": 164.89969229239216,
      "height_km": 476.2819432308322,
      "semi_major_axis_km": 6853.292711965349,
      "eccentricity": 8.72e-05,
      "inclination_deg": 53.1606,
      "raan_deg": 262.8722,
      "arg_perigee_deg": 112.3725,
      "mean_anomaly_deg": 247.7368,
      "mean_motion_rev_day": 15.3021988
    },
    {
      "epoch": "2026-04-19T16:15:26.345664Z",
      "apogee_km": 476.40440822518485,
      "perigee_km": 473.95503282926893,
      "latitude_deg": -2.2946104325188245e-05,
      "longitude_deg": 166.68271212565608,
      "height_km": 476.60971932019066,
      "semi_major_axis_km": 6853.316720527227,
      "eccentricity": 0.0001787,
      "inclination_deg": 53.1602,
      "raan_deg": 258.3211,
      "arg_perigee_deg": 115.7665,
      "mean_anomaly_deg": 244.352,
      "mean_motion_rev_day": 15.30211839
    },
    {
      "epoch": "2026-04-20T09:30:01.835712Z",
      "apogee_km": 476.12245367339347,
      "perigee_km": 474.29713328841717,
      "latitude_deg": -3.924057898299146e-05,
      "longitude_deg": -96.00852921491892,
      "height_km": 476.3978921057609,
      "semi_major_axis_km": 6853.346793480905,
      "eccentricity": 0.00013317,
      "inclination_deg": 53.1599,
      "raan_deg": 254.9859,
      "arg_perigee_deg": 108.5286,
      "mean_anomaly_deg": 251.5859,
      "mean_motion_rev_day": 15.30201767
    },
    {
      "epoch": "2026-04-21T15:17:02.575104Z",
      "apogee_km": 476.1310147569902,
      "perigee_km": 474.3326907700257,
      "latitude_deg": 3.559849007058139e-05,
      "longitude_deg": 170.251476266424,
      "height_km": 476.4124029407527,
      "semi_major_axis_km": 6853.368852763508,
      "eccentricity": 0.0001312,
      "inclination_deg": 53.1617,
      "raan_deg": 249.2221,
      "arg_perigee_deg": 108.2961,
      "mean_anomaly_deg": 251.8183,
      "mean_motion_rev_day": 15.30194379
    },
    {
      "epoch": "2026-04-22T08:31:37.698816Z",
      "apogee_km": 476.0548332520111,
      "perigee_km": 474.398923471721,
      "latitude_deg": -4.78229952417369e-05,
      "longitude_deg": -92.43788503926042,
      "height_km": 476.25014416021224,
      "semi_major_axis_km": 6853.363878361865,
      "eccentricity": 0.00012081,
      "inclination_deg": 53.1596,
      "raan_deg": 245.8873,
      "arg_perigee_deg": 98.6923,
      "mean_anomaly_deg": 261.4214,
      "mean_motion_rev_day": 15.30196045
    },
    {
      "epoch": "2026-04-24T16:57:32.704128Z",
      "apogee_km": 475.9271994360006,
      "perigee_km": 474.4290647481248,
      "latitude_deg": 7.033679247501236e-05,
      "longitude_deg": 127.84233254801582,
      "height_km": 476.36868209126567,
      "semi_major_axis_km": 6853.315132092062,
      "eccentricity": 0.0001093,
      "inclination_deg": 53.1597,
      "raan_deg": 234.9642,
      "arg_perigee_deg": 112.9566,
      "mean_anomaly_deg": 247.1551,
      "mean_motion_rev_day": 15.30212371
    },
    {
      "epoch": "2026-04-25T14:54:17.131968Z",
      "apogee_km": 475.93995121879107,
      "perigee_km": 474.473335679093,
      "latitude_deg": 9.977275366747423e-06,
      "longitude_deg": 153.51029445513066,
      "height_km": 475.89010220249975,
      "semi_major_axis_km": 6853.343643448941,
      "eccentricity": 0.000107,
      "inclination_deg": 53.1578,
      "raan_deg": 230.7186,
      "arg_perigee_deg": 72.9739,
      "mean_anomaly_deg": 287.1379,
      "mean_motion_rev_day": 15.30202822
    },
    {
      "epoch": "2026-04-26T19:07:16.633920Z",
      "apogee_km": 476.0416688952273,
      "perigee_km": 474.5825695777421,
      "latitude_deg": 6.725967320819671e-05,
      "longitude_deg": 83.64270111468262,
      "height_km": 476.35835964600807,
      "semi_major_axis_km": 6853.449119236484,
      "eccentricity": 0.00010645,
      "inclination_deg": 53.1582,
      "raan_deg": 225.2577,
      "arg_perigee_deg": 101.7106,
      "mean_anomaly_deg": 258.4015,
      "mean_motion_rev_day": 15.30167497
    },
    {
      "epoch": "2026-04-27T13:55:53.922144Z",
      "apogee_km": 475.86474464375897,
      "perigee_km": 474.4187028330498,
      "latitude_deg": 5.2755757939484055e-06,
      "longitude_deg": 157.07367397461,
      "height_km": 475.78776260774845,
      "semi_major_axis_km": 6853.278723738404,
      "eccentricity": 0.0001055,
      "inclination_deg": 53.1572,
      "raan_deg": 221.6166,
      "arg_perigee_deg": 69.5912,
      "mean_anomaly_deg": 290.5202,
      "mean_motion_rev_day": 15.30224565
    },
    {
      "epoch": "2026-04-28T13:26:41.367264Z",
      "apogee_km": 475.77683149470613,
      "perigee_km": 474.6241001329563,
      "latitude_deg": 4.1008115498311555e-05,
      "longitude_deg": 158.85856138284777,
      "height_km": 475.7950166630304,
      "semi_major_axis_km": 6853.337465813831,
      "eccentricity": 8.41e-05,
      "inclination_deg": 53.1587,
      "raan_deg": 217.0648,
      "arg_perigee_deg": 58.1523,
      "mean_anomaly_deg": 301.956,
      "mean_motion_rev_day": 15.30204891
    },
    {
      "epoch": "2026-04-29T16:05:35.636640Z",
      "apogee_km": 475.96115450650086,
      "perigee_km": 474.4767176107516,
      "latitude_deg": -5.0921902679913126e-05,
      "longitude_deg": 112.88215973613401,
      "height_km": 476.28523395712256,
      "semi_major_axis_km": 6853.355936058626,
      "eccentricity": 0.0001083,
      "inclination_deg": 53.1591,
      "raan_deg": 211.909,
      "arg_perigee_deg": 103.0841,
      "mean_anomaly_deg": 257.028,
      "mean_motion_rev_day": 15.30198705
    },
    {
      "epoch": "2026-04-30T12:28:17.203584Z",
      "apogee_km": 476.00578143722123,
      "perigee_km": 474.4207385890859,
      "latitude_deg": -1.0670539764304228e-05,
      "longitude_deg": 162.42929049535152,
      "height_km": 476.0824163057757,
      "semi_major_axis_km": 6853.350260013153,
      "eccentricity": 0.00011564,
      "inclination_deg": 53.1596,
      "raan_deg": 207.9662,
      "arg_perigee_deg": 87.9005,
      "mean_anomaly_deg": 272.2128,
      "mean_motion_rev_day": 15.30200606
    },
    {
      "epoch": "2026-05-02T11:29:53.371680Z",
      "apogee_km": 476.1752792961088,
      "perigee_km": 474.25634050933513,
      "latitude_deg": -1.2370071282429749e-05,
      "longitude_deg": 165.99586770052534,
      "height_km": 476.1208267084971,
      "semi_major_axis_km": 6853.352809902722,
      "eccentricity": 0.00014,
      "inclination_deg": 53.1606,
      "raan_deg": 198.8648,
      "arg_perigee_deg": 90.4213,
      "mean_anomaly_deg": 269.6948,
      "mean_motion_rev_day": 15.30199752
    },
    {
      "epoch": "2026-05-03T11:00:41.135616Z",
      "apogee_km": 476.48342444481295,
      "perigee_km": 473.8416145460378,
      "latitude_deg": -9.781406120282462e-06,
      "longitude_deg": 167.77899509335106,
      "height_km": 476.21367155361906,
      "semi_major_axis_km": 6853.299519495426,
      "eccentricity": 0.00019274,
      "inclination_deg": 53.1596,
      "raan_deg": 194.3126,
      "arg_perigee_deg": 96.6963,
      "mean_anomaly_deg": 263.4257,
      "mean_motion_rev_day": 15.302176
    }
  ]
}